STARLINK-11326 [DTC]    
1 62010U 24213C   25181.49050586  .00097521  00000+0  79861-3 0  9992
2 62010  53.1577 204.5700 0002505 164.6460 195.4635 15.69761111 35308
STARLINK-11330 [DTC]    
1 62011U 24213D   25181.50522582  .00155946  00000+0  12648-2 0  9990
2 62011  53.1566 204.6696 0002063 159.5007 200.6094 15.69770167 35300
STARLINK-11363 [DTC]    
1 62012U 24213E   25181.54436877  .00110221  00000+0  90077-3 0  9996
2 62012  53.1568 204.1923 0001095  85.1522 274.9621 15.69758667 35313
STARLINK-11377 [DTC]    
1 62013U 24213F   25181.53946591  .00105070  00000+0  85984-3 0  9992
2 62013  53.1565 204.1641 0001666  83.9903 276.1305 15.69746812 35313
STARLINK-11385 [DTC]    
1 62014U 24213G   25181.50032267  .00072304  00000+0  59577-3 0  9998
2 62014  53.1574 204.6379 0001006  71.7342 288.3786 15.69738239 35308
STARLINK-11396 [DTC]    
1 62015U 24213H   25181.46598412  .00134056  00000+0  10924-2 0  9998
2 62015  53.1581 204.4042 0001169  92.1184 267.9968 15.69735920 35302
STARLINK-11393 [DTC]    
1 62016U 24213J   25181.58841625  .00178680  00000+0  14443-2 0  9990
2 62016  53.1579 203.7464 0001039 112.4678 247.6450 15.69774254 35326
STARLINK-11343 [DTC]    
1 62017U 24213K   25181.43174971  .00110555  00000+0  90460-3 0  9999
2 62017  53.1572 204.9213 0001320  92.5050 267.6119 15.69727786 35298
STARLINK-11411 [DTC]    
1 62018U 24213L   25181.29460018  .00179764  00000+0  14553-2 0  9999
2 62018  53.1571 205.4824 0001256  38.9741 321.1368 15.69733376 35273
STARLINK-11404 [DTC]    
1 62019U 24213M   25181.51503719  .00110581  00000+0  90406-3 0  9995
2 62019  53.1569 204.7307 0001270 115.6545 244.4604 15.69747839 35303
STARLINK-11378 [DTC]    
1 62020U 24213N   25181.45617547  .00177922  00000+0  14395-2 0  9999
2 62020  53.1578 204.3422 0001442  81.0245 279.0936 15.69754541 35303
STARLINK-32520          
1 62021U 24213P   25181.53075343  .00008426  00000+0  29627-3 0  9998
2 62021  53.1582 259.6990 0000993 100.8868 259.2245 15.30203268 34544
STARLINK-32539          
1 62022U 24213Q   25181.47752125  .00007984  00000+0  28140-3 0  9999
2 62022  53.1572 247.1130 0001163  77.0798 283.0333 15.30201012 34716
STARLINK-32334          
1 62023U 24213R   25181.54014128  .00013985  00000+0  48333-3 0  9996
2 62023  53.1586 259.0451 0001184  83.5879 276.5256 15.30205704 34550
STARLINK-32504          
1 62024U 24213S   25181.49171029  .00018529  00000+0  63600-3 0  9998
2 62024  53.1575 259.4622 0001038  64.2570 295.8538 15.30208217 34543
STARLINK-32493          
1 62025U 24213T   25181.45910641  .00009227  00000+0  32319-3 0  9994
2 62025  53.1570 259.9627 0001072 120.3982 239.7125 15.30207321 34531
STARLINK-32561          
1 62026U 24213U   25181.49804181  .00022362  00000+0  76495-3 0  9998
2 62026  53.1577 259.4960 0001047  69.4702 290.6411 15.30196825 34540
STARLINK-32512          
1 62027U 24213V   25181.48221300  .00005358  00000+0  19291-3 0  9991
2 62027  53.1584 259.3963 0001444  81.9144 278.2021 15.30198158 34541
STARLINK-32637          
1 62032U 24216A   25181.23127391 -.00025877  00000+0 -61465-3 0  9998
2 62032  42.9921 242.2287 0004593 137.9965 222.1244 15.40669703 35264
STARLINK-32582          
1 62033U 24216B   25181.22610840  .00007566  00000+0  28425-3 0  9996
2 62033  42.9977 249.1102 0002021 284.5471  75.5156 15.27571481 35186
STARLINK-32615          
1 62034U 24216C   25181.58335648  .00071241  00000+0  25119-2 0  9993
2 62034  43.0003 240.2279 0001418 267.7529 239.1870 15.28373422  5951
STARLINK-32592          
1 62035U 24216D   25181.25179422  .00021441  00000+0  78558-3 0  9997
2 62035  42.9967 249.2986 0001247 208.9720 151.1063 15.27614384 35193
STARLINK-32225          
1 62036U 24216E   25181.58335648 -.01748744  00000+0 -64670-1 0  9991
2 62036  42.9996 240.3048 0001845 296.2281 178.3442 15.30368413  5959
STARLINK-32595          
1 62037U 24216F   25181.24023216  .00011732  00000+0  43497-3 0  9993
2 62037  43.0035 249.2171 0001937 281.1970  78.8664 15.27596231 35197
STARLINK-32477          
1 62038U 24216G   25181.43248670  .00033306  00000+0  80052-3 0  9997
2 62038  43.0002 241.1653 0001708 160.4109 199.6814 15.40721295 34134
STARLINK-32480          
1 62039U 24216H   25181.58335648  .00060455  00000+0  21368-2 0  9995
2 62039  43.0000 240.3484 0001508 270.9090 185.0635 15.28362792  5902
STARLINK-32510          
1 62040U 24216J   25181.52747292  .00015968  00000+0  58812-3 0  9997
2 62040  42.9978 247.9313 0001833 268.7082  91.3560 15.27602852 35224
STARLINK-32456          
1 62041U 24216K   25181.58335648  .00058970  00000+0  20835-2 0  9995
2 62041  42.9998 240.3864 0001163 286.3612 153.7327 15.28386121  5956
STARLINK-32509          
1 62042U 24216L   25181.58335648 -.01109519  00000+0 -35491-1 0  9998
2 62042  42.9998 240.2124 0001492 280.6083 231.6746 15.34541888  5950
STARLINK-32491          
1 62043U 24216M   25181.19669086  .00010758  00000+0  39970-3 0  9993
2 62043  42.9974 249.7477 0001964 274.4351  85.6276 15.27593886 35172
STARLINK-32577          
1 62044U 24216N   25181.23252168  .00011400  00000+0  42296-3 0  9998
2 62044  42.9994 249.1567 0001573 275.7033  84.3639 15.27593911 35196
STARLINK-32618          
1 62045U 24216P   25181.58335648  .00059488  00000+0  21022-2 0  9993
2 62045  43.0001 240.3046 0002328 290.0967 183.4339 15.28375072  5909
STARLINK-32598          
1 62046U 24216Q   25181.54868934  .00028155  00000+0  67871-3 0  9999
2 62046  42.9991 240.3120 0001786 271.3061  88.7591 15.40702558 35315
STARLINK-32630          
1 62047U 24216R   25181.24408705  .00009118  00000+0  34034-3 0  9996
2 62047  43.0007 249.2411 0001466 275.3084  84.7600 15.27590385 35181
STARLINK-32599          
1 62048U 24216S   25181.24794039  .00013548  00000+0  50064-3 0  9998
2 62048  43.0021 249.2716 0002132 279.8111  80.2500 15.27599642 35182
STARLINK-32473          
1 62049U 24216T   25181.58335648  .00049799  00000+0  17637-2 0  9998
2 62049  42.9998 240.2029 0001538 268.2917 246.9485 15.28374943  5903
STARLINK-32492          
1 62050U 24216U   25181.48378549  .00011189  00000+0  41539-3 0  9997
2 62050  42.9954 247.6003 0000549 173.2158 186.8701 15.27589524 35226
STARLINK-32496          
1 62051U 24216V   25181.58515081  .00017465  00000+0  64232-3 0  9991
2 62051  43.0012 247.5075 0001750 279.3304  80.7350 15.27598794 35230
STARLINK-32495          
1 62052U 24216W   25181.20425322  .00014670  00000+0  54124-3 0  9993
2 62052  43.0020 248.9433 0002150 270.4120  89.6485 15.27598735 35182
STARLINK-32494          
1 62053U 24216X   25181.22995314  .00010271  00000+0  38218-3 0  9998
2 62053  43.0006 249.1367 0002053 269.8077  90.2539 15.27585134 34031
STARLINK-32408          
1 62054U 24216Y   25179.54348881  .00032731  00000+0  78844-3 0  9996
2 62054  42.9990 251.9229 0002647 275.6547  84.4008 15.40659939 33840
STARLINK-32571          
1 62055U 24216Z   25181.22006670  .00028050  00000+0  67563-3 0  9997
2 62055  42.9984 242.1440 0003645 296.9539  63.0945 15.40724934 35367
STARLINK-11465 [DTC]    
1 62057U 24217A   25181.41456187  .00135835  00000+0  11065-2 0  9998
2 62057  53.1566 234.6782 0001969  97.1935 262.9306 15.69737334 35553
STARLINK-11426 [DTC]    
1 62058U 24217B   25181.40965736  .00130022  00000+0  10603-2 0  9993
2 62058  53.1574 234.6465 0001315  56.8058 303.3086 15.69733215 35496
STARLINK-11454 [DTC]    
1 62059U 24217C   25181.31665717  .00112192  00000+0  91803-3 0  9990
2 62059  53.1571 235.5032 0001096  47.6285 312.4825 15.69720305 35533
STARLINK-11473 [DTC]    
1 62060U 24217D   25181.51747500  .00093424  00000+0  76635-3 0  9997
2 62060  53.1570 234.6216 0001361  87.6530 272.4643 15.69740650 35561
STARLINK-11429 [DTC]    
1 62061U 24217E   25181.43908982  .00169121  00000+0  13696-2 0  9997
2 62061  53.1566 234.8390 0001135  68.3968 291.7171 15.69761407 35554
STARLINK-11470 [DTC]    
1 62062U 24217F   25181.49785226  .00107122  00000+0  87639-3 0  9990
2 62062  53.1571 234.4936 0001167  88.7796 271.3355 15.69745311 35502
STARLINK-11427 [DTC]    
1 62063U 24217G   25181.51256823  .00117757  00000+0  96200-3 0  9999
2 62063  53.1563 234.5890 0001355 124.7483 235.3663 15.69737289 35560
STARLINK-11456 [DTC]    
1 62064U 24217H   25181.54680537  .00103313  00000+0  84602-3 0  9992
2 62064  53.1569 234.0807 0000953  88.1574 271.9553 15.69738728 35571
STARLINK-11474 [DTC]    
1 62065U 24217J   25181.53208995  .00164119  00000+0  13325-2 0  9990
2 62065  53.1572 233.9832 0001223  67.1745 292.9402 15.69716763 35571
STARLINK-11463 [DTC]    
1 62066U 24217K   25181.49294626  .00123045  00000+0  10051-2 0  9998
2 62066  53.1561 234.4608 0001063  74.0043 286.1092 15.69719221 35568
STARLINK-11472 [DTC]    
1 62067U 24217L   25181.46361754  .00148701  00000+0  12099-2 0  9993
2 62067  53.1571 234.9978 0001422  67.9753 292.1416 15.69719161 35484
STARLINK-11467 [DTC]    
1 62068U 24217M   25181.48804123  .00178276  00000+0  14429-2 0  9997
2 62068  53.1561 234.4256 0001210  89.8406 270.2750 15.69744304 35565
STARLINK-11460 [DTC]    
1 62069U 24217N   25181.52238216  .00125789  00000+0  10262-2 0  9999
2 62069  53.1560 234.6511 0001948  40.0293 320.0869 15.69738854 35504
STARLINK-32604          
1 62070U 24217P   25181.54874046  .00017235  00000+0  59243-3 0  9999
2 62070  53.1599 285.3364 0001988  91.4928 268.6300 15.30213262 34815
STARLINK-32553          
1 62071U 24217Q   25181.54767652 -.00002895  00000+0 -85669-4 0  9994
2 62071  53.1594 285.3321 0001110  54.1964 305.9140 15.30192381 34867
STARLINK-32603          
1 62072U 24217R   25181.60138878  .00009474  00000+0  33151-3 0  9990
2 62072  53.1598 284.9537 0001307 124.0710 236.0415 15.30205942 34878
STARLINK-32444          
1 62073U 24217S   25181.59506087  .00005046  00000+0  18238-3 0  9990
2 62073  53.1579 284.9350 0001111 103.3595 256.7530 15.30199050 34829
